[{"OBJECT_NAME":"STARLINK-30524","OBJECT_ID":"2023-151B","EPOCH":"2026-03-09T03:56:32.838144","MEAN_MOTION":15.2677762,"ECCENTRICITY":0.00010457,"INCLINATION":43,"RA_OF_ASC_NODE":339.1883,"ARG_OF_PERICENTER":274.6135,"MEAN_ANOMALY":85.4596,"EPHEMERIS_TYPE":0,"CLASSIFICATION_TYPE":"U","NORAD_CAT_ID":57965,"ELEMENT_SET_NO":999,"REV_AT_EPOCH":13568,"BSTAR":0.00027520135,"MEAN_MOTION_DOT":7.138e-5,"MEAN_MOTION_DDOT":0},{"OBJECT_NAME":"OTTER","OBJECT_ID":"2025-009Q","EPOCH":"2026-03-09T17:21:07.902432","MEAN_MOTION":15.27809545,"ECCENTRICITY":0.00035728,"INCLINATION":97.4065,"RA_OF_ASC_NODE":151.3812,"ARG_OF_PERICENTER":310.771,"MEAN_ANOMALY":49.3219,"EPHEMERIS_TYPE":0,"CLASSIFICATION_TYPE":"U","NORAD_CAT_ID":62623,"ELEMENT_SET_NO":999,"REV_AT_EPOCH":6372,"BSTAR":0.00045151206,"MEAN_MOTION_DOT":0.00012198,"MEAN_MOTION_DDOT":0}]
